CCSDS_OMM_VERS = 2.0
CREATION_DATE  = 
ORIGINATOR     = 

OBJECT_NAME    = STARLINK-36698
OBJECT_ID      = 2026-025S
CENTER_NAME    = EARTH
REF_FRAME      = TEME
TIME_SYSTEM    = UTC
MEAN_ELEMENT_THEORY = SGP/SGP4

EPOCH          = 2026-02-24T06:00:02.000160
MEAN_MOTION    = 15.80749006
ECCENTRICITY   = .00013243
INCLINATION    = 97.2756
RA_OF_ASC_NODE = 166.1996
ARG_OF_PERICENTER = 62.0384
MEAN_ANOMALY   = 57.6500

EPHEMERIS_TYPE = 0
CLASSIFICATION_TYPE = U
NORAD_CAT_ID   = 67709
ELEMENT_SET_NO = 999
REV_AT_EPOCH   = 369
BSTAR          = .10625395E-2
MEAN_MOTION_DOT = .207667E-2
MEAN_MOTION_DDOT = 0

CCSDS_OMM_VERS = 2.0
CREATION_DATE  = 
ORIGINATOR     = 

OBJECT_NAME    = STARLINK-36344
OBJECT_ID      = 2026-025T
CENTER_NAME    = EARTH
REF_FRAME      = TEME
TIME_SYSTEM    = UTC
MEAN_ELEMENT_THEORY = SGP/SGP4

EPOCH          = 2026-02-24T06:00:02.000160
MEAN_MOTION    = 15.80705685
ECCENTRICITY   = .00012844
INCLINATION    = 97.2764
RA_OF_ASC_NODE = 166.1899
ARG_OF_PERICENTER = 83.5728
MEAN_ANOMALY   = 11.6843

EPHEMERIS_TYPE = 0
CLASSIFICATION_TYPE = U
NORAD_CAT_ID   = 67710
ELEMENT_SET_NO = 999
REV_AT_EPOCH   = 385
BSTAR          = .12997222E-2
MEAN_MOTION_DOT = .254945E-2
MEAN_MOTION_DDOT = 0

CCSDS_OMM_VERS = 2.0
CREATION_DATE  = 
ORIGINATOR     = 

OBJECT_NAME    = STARLINK-36687
OBJECT_ID      = 2026-025U
CENTER_NAME    = EARTH
REF_FRAME      = TEME
TIME_SYSTEM    = UTC
MEAN_ELEMENT_THEORY = SGP/SGP4

EPOCH          = 2026-02-24T06:00:02.000160
MEAN_MOTION    = 15.80712063
ECCENTRICITY   = .00010788
INCLINATION    = 97.2763
RA_OF_ASC_NODE = 166.1945
ARG_OF_PERICENTER = 88.9051
MEAN_ANOMALY   = 17.6916

EPHEMERIS_TYPE = 0
CLASSIFICATION_TYPE = U
NORAD_CAT_ID   = 67711
ELEMENT_SET_NO = 999
REV_AT_EPOCH   = 385
BSTAR          = .12857947E-2
MEAN_MOTION_DOT = .252206E-2
MEAN_MOTION_DDOT = 0

CCSDS_OMM_VERS = 2.0
CREATION_DATE  = 
ORIGINATOR     = 

OBJECT_NAME    = STARLINK-36705
OBJECT_ID      = 2026-025V
CENTER_NAME    = EARTH
REF_FRAME      = TEME
TIME_SYSTEM    = UTC
MEAN_ELEMENT_THEORY = SGP/SGP4

EPOCH          = 2026-02-24T06:00:02.000160
MEAN_MOTION    = 15.80777309
ECCENTRICITY   = .00012968
INCLINATION    = 97.2719
RA_OF_ASC_NODE = 166.2037
ARG_OF_PERICENTER = 82.6792
MEAN_ANOMALY   = 50.8969

EPHEMERIS_TYPE = 0
CLASSIFICATION_TYPE = U
NORAD_CAT_ID   = 67712
ELEMENT_SET_NO = 999
REV_AT_EPOCH   = 375
BSTAR          = .40829736E-3
MEAN_MOTION_DOT = .78635E-3
MEAN_MOTION_DDOT = 0

CCSDS_OMM_VERS = 2.0
CREATION_DATE  = 
ORIGINATOR     = 

OBJECT_NAME    = STARLINK-36708
OBJECT_ID      = 2026-025W
CENTER_NAME    = EARTH
REF_FRAME      = TEME
TIME_SYSTEM    = UTC
MEAN_ELEMENT_THEORY = SGP/SGP4

EPOCH          = 2026-02-24T06:00:02.000160
MEAN_MOTION    = 15.80862556
ECCENTRICITY   = .00011811
INCLINATION    = 97.2715
RA_OF_ASC_NODE = 166.2186
ARG_OF_PERICENTER = 80.5666
MEAN_ANOMALY   = 86.6918

EPHEMERIS_TYPE = 0
CLASSIFICATION_TYPE = U
NORAD_CAT_ID   = 67713
ELEMENT_SET_NO = 999
REV_AT_EPOCH   = 375
BSTAR          = .55780866E-4
MEAN_MOTION_DOT = .10579E-3
MEAN_MOTION_DDOT = 0

CCSDS_OMM_VERS = 2.0
CREATION_DATE  = 
ORIGINATOR     = 

OBJECT_NAME    = STARLINK-36702
OBJECT_ID      = 2026-025X
CENTER_NAME    = EARTH
REF_FRAME      = TEME
TIME_SYSTEM    = UTC
MEAN_ELEMENT_THEORY = SGP/SGP4

EPOCH          = 2026-02-24T06:00:02.000160
MEAN_MOTION    = 15.80822122
ECCENTRICITY   = .00015397
INCLINATION    = 97.2712
RA_OF_ASC_NODE = 166.2144
ARG_OF_PERICENTER = 89.2087
MEAN_ANOMALY   = 67.7350

EPHEMERIS_TYPE = 0
CLASSIFICATION_TYPE = U
NORAD_CAT_ID   = 67714
ELEMENT_SET_NO = 999
REV_AT_EPOCH   = 348
BSTAR          = .83514046E-4
MEAN_MOTION_DOT = .15889E-3
MEAN_MOTION_DDOT = 0

CCSDS_OMM_VERS = 2.0
CREATION_DATE  = 
ORIGINATOR     = 

OBJECT_NAME    = STARLINK-36718
OBJECT_ID      = 2026-025Y
CENTER_NAME    = EARTH
REF_FRAME      = TEME
TIME_SYSTEM    = UTC
MEAN_ELEMENT_THEORY = SGP/SGP4

EPOCH          = 2026-02-24T06:00:02.000160
MEAN_MOTION    = 15.80790575
ECCENTRICITY   = .00013768
INCLINATION    = 97.2696
RA_OF_ASC_NODE = 166.2299
ARG_OF_PERICENTER = 81.9669
MEAN_ANOMALY   = 110.0721

EPHEMERIS_TYPE = 0
CLASSIFICATION_TYPE = U
NORAD_CAT_ID   = 67715
ELEMENT_SET_NO = 999
REV_AT_EPOCH   = 369
BSTAR          = .36712982E-3
MEAN_MOTION_DOT = .70671E-3
MEAN_MOTION_DDOT = 0

CCSDS_OMM_VERS = 2.0
CREATION_DATE  = 
ORIGINATOR     = 

OBJECT_NAME    = STARLINK-36715
OBJECT_ID      = 2026-025Z
CENTER_NAME    = EARTH
REF_FRAME      = TEME
TIME_SYSTEM    = UTC
MEAN_ELEMENT_THEORY = SGP/SGP4

EPOCH          = 2026-02-24T06:00:02.000160
MEAN_MOTION    = 15.80766419
ECCENTRICITY   = .00008213
INCLINATION    = 97.2704
RA_OF_ASC_NODE = 166.2249
ARG_OF_PERICENTER = 75.4153
MEAN_ANOMALY   = 104.8886

EPHEMERIS_TYPE = 0
CLASSIFICATION_TYPE = U
NORAD_CAT_ID   = 67716
ELEMENT_SET_NO = 999
REV_AT_EPOCH   = 375
BSTAR          = .80858073E-3
MEAN_MOTION_DOT = .157203E-2
MEAN_MOTION_DDOT = 0

CCSDS_OMM_VERS = 2.0
CREATION_DATE  = 
ORIGINATOR     = 

OBJECT_NAME    = STARLINK-36385
OBJECT_ID      = 2026-025AA
CENTER_NAME    = EARTH
REF_FRAME      = TEME
TIME_SYSTEM    = UTC
MEAN_ELEMENT_THEORY = SGP/SGP4

EPOCH          = 2026-02-24T06:00:02.000160
MEAN_MOTION    = 15.80802957
ECCENTRICITY   = .00012243
INCLINATION    = 97.2723
RA_OF_ASC_NODE = 166.2096
ARG_OF_PERICENTER = 75.4063
MEAN_ANOMALY   = 69.3313

EPHEMERIS_TYPE = 0
CLASSIFICATION_TYPE = U
NORAD_CAT_ID   = 67717
ELEMENT_SET_NO = 999
REV_AT_EPOCH   = 375
BSTAR          = .27880675E-3
MEAN_MOTION_DOT = .53559E-3
MEAN_MOTION_DDOT = 0

CCSDS_OMM_VERS = 2.0
CREATION_DATE  = 
ORIGINATOR     = 

OBJECT_NAME    = CZ-2F DEB
OBJECT_ID      = 2026-024E
CENTER_NAME    = EARTH
REF_FRAME      = TEME
TIME_SYSTEM    = UTC
MEAN_ELEMENT_THEORY = SGP/SGP4

EPOCH          = 2026-02-24T06:52:38.603424
MEAN_MOTION    = 15.19591641
ECCENTRICITY   = .02507813
INCLINATION    = 50.3155
RA_OF_ASC_NODE = 84.2942
ARG_OF_PERICENTER = 227.3002
MEAN_ANOMALY   = 130.6593

EPHEMERIS_TYPE = 0
CLASSIFICATION_TYPE = U
NORAD_CAT_ID   = 67718
ELEMENT_SET_NO = 999
REV_AT_EPOCH   = 259
BSTAR          = .35093123E-2
MEAN_MOTION_DOT = .182888E-2
MEAN_MOTION_DDOT = 0

CCSDS_OMM_VERS = 2.0
CREATION_DATE  = 
ORIGINATOR     = 

OBJECT_NAME    = CZ-2F DEB
OBJECT_ID      = 2026-024F
CENTER_NAME    = EARTH
REF_FRAME      = TEME
TIME_SYSTEM    = UTC
MEAN_ELEMENT_THEORY = SGP/SGP4

EPOCH          = 2026-02-24T04:07:29.460000
MEAN_MOTION    = 14.99419846
ECCENTRICITY   = .03259839
INCLINATION    = 49.7913
RA_OF_ASC_NODE = 86.7781
ARG_OF_PERICENTER = 217.2993
MEAN_ANOMALY   = 140.4908

EPHEMERIS_TYPE = 0
CLASSIFICATION_TYPE = U
NORAD_CAT_ID   = 67719
ELEMENT_SET_NO = 999
REV_AT_EPOCH   = 221
BSTAR          = .3551768E-2
MEAN_MOTION_DOT = .141968E-2
MEAN_MOTION_DDOT = 0

CCSDS_OMM_VERS = 2.0
CREATION_DATE  = 
ORIGINATOR     = 

OBJECT_NAME    = CZ-2F DEB
OBJECT_ID      = 2026-024G
CENTER_NAME    = EARTH
REF_FRAME      = TEME
TIME_SYSTEM    = UTC
MEAN_ELEMENT_THEORY = SGP/SGP4

EPOCH          = 2026-02-24T06:27:16.254432
MEAN_MOTION    = 14.96791078
ECCENTRICITY   = .03364969
INCLINATION    = 49.8301
RA_OF_ASC_NODE = 86.6695
ARG_OF_PERICENTER = 214.0767
MEAN_ANOMALY   = 143.8156

EPHEMERIS_TYPE = 0
CLASSIFICATION_TYPE = U
NORAD_CAT_ID   = 67720
ELEMENT_SET_NO = 999
REV_AT_EPOCH   = 254
BSTAR          = .35721805E-2
MEAN_MOTION_DOT = .139038E-2
MEAN_MOTION_DDOT = 0

