STARLINK-36698          
1 67709U 26025S   26055.25002315  .00207667  00000+0  10625-2 0  9993
2 67709  97.2756 166.1996 0001324  62.0384  57.6500 15.80749006  3699
STARLINK-36344          
1 67710U 26025T   26055.25002315  .00254945  00000+0  12997-2 0  9990
2 67710  97.2764 166.1899 0001284  83.5728  11.6843 15.80705685  3850
STARLINK-36687          
1 67711U 26025U   26055.25002315  .00252206  00000+0  12858-2 0  9995
2 67711  97.2763 166.1945 0001078  88.9051  17.6916 15.80712063  3856
STARLINK-36705          
1 67712U 26025V   26055.25002315  .00078635  00000+0  40830-3 0  9990
2 67712  97.2719 166.2037 0001296  82.6792  50.8969 15.80777309  3756
STARLINK-36708          
1 67713U 26025W   26055.25002315  .00010579  00000+0  55781-4 0  9996
2 67713  97.2715 166.2186 0001181  80.5666  86.6918 15.80862556  3758
STARLINK-36702          
1 67714U 26025X   26055.25002315  .00015889  00000+0  83514-4 0  9991
2 67714  97.2712 166.2144 0001539  89.2087  67.7350 15.80822122  3485
STARLINK-36718          
1 67715U 26025Y   26055.25002315  .00070671  00000+0  36713-3 0  9990
2 67715  97.2696 166.2299 0001376  81.9669 110.0721 15.80790575  3695
STARLINK-36715          
1 67716U 26025Z   26055.25002315  .00157203  00000+0  80858-3 0  9997
2 67716  97.2704 166.2249 0000821  75.4153 104.8886 15.80766419  3751
STARLINK-36385          
1 67717U 26025AA  26055.25002315  .00053559  00000+0  27881-3 0  9994
2 67717  97.2723 166.2096 0001224  75.4063  69.3313 15.80802957  3759
CZ-2F DEB               
1 67718U 26024E   26055.28655791  .00182888  00000+0  35093-2 0  9990
2 67718  50.3155  84.2942 0250781 227.3002 130.6593 15.19591641  2593
CZ-2F DEB               
1 67719U 26024F   26055.17186875  .00141968  00000+0  35518-2 0  9997
2 67719  49.7913  86.7781 0325983 217.2993 140.4908 14.99419846  2211
CZ-2F DEB               
1 67720U 26024G   26055.26893813  .00139038  00000+0  35722-2 0  9998
2 67720  49.8301  86.6695 0336496 214.0767 143.8156 14.96791078  2548
